GSAT-11                 
1 43824U 18100B   25030.71891826 -.00000070  00000+0  00000+0 0  9999
2 43824   0.0816 268.7902 0002335 132.5236  61.6427  1.00271760 22449
GSAT-7A                 
1 43864U 18105A   25030.40962032  .00000033  00000+0  00000+0 0  9990
2 43864   0.0140  93.0364 0002181 208.3679  38.7569  1.00271991 22400
COSMOS 2533             
1 43867U 18107A   25029.98938240 -.00000031  00000+0  00000+0 0  9999
2 43867   0.0275 115.9890 0001229 187.1751 252.4546  1.00273388 22397
TJS-3                   
1 43874U 18110A   25031.64088719 -.00000209  00000+0  00000+0 0  9991
2 43874   1.2457  86.6121 0001689  48.9278  14.7455  1.00271864 22394
ZHONGXING-2D            
1 43920U 19001A   25031.54141874 -.00000332  00000+0  00000+0 0  9991
2 43920   0.0320 254.6732 0001236 324.5563 236.6427  1.00267730 49047
HELLAS-SAT 4 & SGS-1    
1 44034U 19007A   25027.89424212  .00000166  00000+0  00000+0 0  9991
2 44034   0.0668 122.2632 0002863  44.5686 321.4807  1.00269299 22284
GSAT-31                 
1 44035U 19007B   25031.04968834  .00000131  00000+0  00000+0 0  9999
2 44035   0.0881 268.4220 0005547  17.4708 270.3821  1.00271102 21939
NUSANTARA SATU          
1 44048U 19009A   25028.60674451 -.00000224  00000+0  00000+0 0  9996
2 44048   0.0256 123.3692 0000934  11.2165 357.9463  1.00271233 21710
ZHONGXING-6C            
1 44067U 19012A   25031.54141874 -.00000330  00000+0  00000+0 0  9994
2 44067   0.0565  81.5108 0003670 237.8743 136.9188  1.00272638 21718
WGS 10 (USA 291)        
1 44071U 19014A   25029.12265249  .00000056  00000+0  00000+0 0  9999
2 44071   0.0150  86.4394 0000401 316.2672 190.3419  1.00272202 21578
TIANLIAN 2-01           
1 44076U 19017A   25031.48415206 -.00000101  00000+0  00000+0 0  9991
2 44076   0.2808  93.3220 0003788 221.3016  67.6319  1.00271281 21615
ARABSAT-6A              
1 44186U 19021A   25029.18859479  .00000163  00000+0  00000+0 0  9993
2 44186   0.0377   2.7628 0004154 302.4285 281.8760  1.00276978 21101
BEIDOU-3 IGSO-1         
1 44204U 19023A   25031.42116373 -.00000185  00000+0  00000+0 0  9990
2 44204  57.9785  42.8373 0023291 225.7776 132.9438  1.00285765  2171
BEIDOU-2 G8             
1 44231U 19027A   25031.56894737 -.00000244  00000+0  00000+0 0  9992
2 44231   2.0458  74.9062 0004562 217.0589 188.3238  1.00267512 21057
YAMAL 601               
1 44307U 19031A   25029.83529667  .00000128  00000+0  00000+0 0  9995
2 44307   0.0212 106.8497 0002439 205.6945 166.4531  1.00271521 20871
AT&T T-16               
1 44333U 19034A   25030.09137712 -.00000106  00000+0  00000+0 0  9990
2 44333   0.0151  73.7692 0001246  65.8304 281.9687  1.00268606 20584
EUTELSAT 7C             
1 44334U 19034B   25028.42619012  .00000060  00000+0  00000+0 0  9991
2 44334   0.0735 191.5925 0003132 106.4147 350.3264  1.00271195 21067
BEIDOU-3 IGSO-2         
1 44337U 19035A   25030.76433603 -.00000140  00000+0  00000+0 0  9995
2 44337  55.2008 163.2727 0036108 198.6282 161.5810  1.00268313 20632
COSMOS 2539             
1 44457U 19048A   25029.95327228  .00000090  00000+0  00000+0 0  9999
2 44457   0.0275 115.4079 0001218 182.4523 186.7391  1.00275770 20189
EDRS-C                  
1 44475U 19049A   25030.55221431  .00000161  00000+0  00000+0 0  9996
2 44475   0.0702 248.1231 0000395  37.7622  74.0878  1.00271762 20170
INTELSAT 39 (IS-39)     
1 44476U 19049B   25030.97058735  .00000040  00000+0  00000+0 0  9994
2 44476   0.0173  68.1419 0000756  73.3283  40.3127  1.00272088 20097
AMOS-17                 
1 44479U 19050A   25028.21299257  .00000121  00000+0  00000+0 0  9999
2 44479   0.0107  34.3311 0001500 269.6081 277.4458  1.00271764 20121
AEHF-5 (USA 292)        
1 44481U 19051A   25030.12917013 -.00000221  00000+0  00000+0 0  9995
2 44481   2.2461 311.7307 0059197  11.8241 302.4875  1.00266988 20212
EUTELSAT 5 WEST B       
1 44624U 19067A   25031.25348442 -.00000036  00000+0  00000+0 0  9994
2 44624   0.0950 309.0959 0003038   4.6066 263.2326  1.00270643 19408
MEV-1                   
1 44625U 19067B   25031.39197190 -.00000196  00000+0  00000+0 0  9999
2 44625   0.0212 114.3294 0002309 236.7683 253.3650  1.00270370 19353
TJS-4                   
1 44637U 19070A   25031.36155779 -.00000164  00000+0  00000+0 0  9995
2 44637   0.0255 171.4847 0004979 180.3557 352.6511  1.00273501 19437
BEIDOU-3 IGSO-3         
1 44709U 19073A   25031.10122714 -.00000153  00000+0  00000+0 0  9991
2 44709  55.6590 286.3036 0041145 183.0810 177.0083  1.00287500 19425
TIBA-1                  
1 44800U 19080A   25031.54731416  .00000161  00000+0  00000+0 0  9992
2 44800   0.0543  21.0218 0002058 287.2164  55.2692  1.00271848 19021
INMARSAT GX5            
1 44801U 19080B   25031.25669899  .00000081  00000+0  00000+0 0  9997
2 44801   0.0361  19.1287 0002114 298.9606 276.0328  1.00273065  1750
JCSAT-18 (KACIFIC 1)    
1 44868U 19091A   25029.56962090 -.00000193  00000+0  00000+0 0  9997
2 44868   0.0520 254.4489 0000267  80.0238 149.6188  1.00270238 18965
ELEKTRO-L 3             
1 44903U 19095A   25031.55539403 -.00000091  00000+0  00000+0 0  9998
2 44903   0.0180 285.9822 0001843  19.9541 101.0666  1.00268707 18675
SHIJIAN-20 (SJ-20)      
1 44910U 19097A   25031.55478587 -.00000063  00000+0  00000+0 0  9992
2 44910   3.6283  81.2393 0006479 193.9792 128.5237  1.00271926 18661
TJS-5                   
1 44978U 20002A   25030.96433632 -.00000335  00000+0  00000+0 0  9992
2 44978   0.4748 269.3342 0004533 287.2977  28.4429  1.00261850 18666
GSAT-30                 
1 45026U 20005A   25029.05618891 -.00000155  00000+0  00000+0 0  9990
2 45026   0.0074 252.8812 0000525 312.8465  26.0838  1.00268506 18452
EUTELSAT KONNECT        
1 45027U 20005B   25030.54133111  .00000056  00000+0  00000+0 0  9993
2 45027   0.0588  90.5010 0000505 194.1172  47.4660  1.00271667 19288
JCSAT-17                
1 45245U 20013A   25031.21004418 -.00000305  00000+0  00000+0 0  9994
2 45245   5.4832 351.9679 0004255 322.0639  28.2473  1.00271532 18191
GEO-KOMPSAT-2B          
1 45246U 20013B   25030.92272078 -.00000338  00000+0  00000+0 0  9997
2 45246   0.0533 260.4611 0002125  38.0910 292.2347  1.00268262 18246
BEIDOU-3 G2             
1 45344U 20017A   25031.55617595 -.00000135  00000+0  00000+0 0  9992
2 45344   2.6415  37.1862 0003012 275.3134  98.7652  1.00270524 18230
AEHF-6 (USA 298)        
1 45465U 20022B   25031.56764417 -.00000291  00000+0  00000+0 0  9992
2 45465   3.6853 298.1536 0049232   8.2771 166.7041  1.00270392 17984
BEIDOU-3 G3             
1 45807U 20040A   25031.56225758 -.00000347  00000+0  00000+0 0  9994
2 45807   1.2423  59.8981 0004033 311.2516  72.6616  1.00263962 17046
APSTAR-6D               
1 45863U 20045A   25028.27882436 -.00000306  00000+0  00000+0 0  9992
2 45863   0.0446  95.4764 0002721 349.2946 277.4032  1.00270499 16796
KOREASAT 116            
1 45920U 20048A   25031.56338703 -.00000356  00000+0  00000+0 0  9993
2 45920   0.0102   9.9807 0000891 285.3461 154.6710  1.00267990 16617
EXPRESS 103             
1 45985U 20053A   25029.05888222 -.00000270  00000+0  00000+0 0  9992
2 45985   0.0144  81.7106 0000561 352.6198 171.9217  1.00268024 16593
EXPRESS 80              
1 45986U 20053B   25031.41419936 -.00000129  00000+0  00000+0 0  9991
2 45986   0.0490 263.1544 0002030 317.0717 139.7361  1.00268265 16594
BSAT-4B                 
1 46112U 20056A   25031.56208382 -.00000345  00000+0  00000+0 0  9993
2 46112   0.0428 125.5597 0000380  12.4936 305.1397  1.00271231 16350
MEV-2                   
1 46113U 20056B   25031.48220766 -.00000005  00000+0  00000+0 0  9998
2 46113   0.0059 281.4950 0000690  86.6540 295.4089  1.00273253 17169
GALAXY 30 (G-30)        
1 46114U 20056C   25029.28452315  .00000046  00000+0  00000+0 0  9995
2 46114   0.0158  69.2429 0001925 247.8046 149.1452  1.00270668 16353
GAOFEN-13 01            
1 46610U 20071A   25031.00461622 -.00000357  00000+0  00000+0 0  9993
2 46610   0.2487  83.6036 0017359 119.7075  46.6694  1.00264454 15884
TIANTONG-1 2            
1 46916U 20082A   25031.56512463 -.00000349  00000+0  00000+0 0  9996
2 46916   1.8021 296.0289 0003604  29.0374 134.3412  1.00270567 15624
LUCAS (JDRS-1)          
1 47202U 20089A   25031.55834796 -.00000229  00000+0  00000+0 0  9994
2 47202   0.0302  93.7718 0003452 225.1718 103.8055  1.00268482 15387
SXM-7                   
1 47240U 20096A   25023.51144814 -.00000183  00000+0  00000+0 0  9995
2 47240   0.0231 107.1717 0004380  24.5833  90.2510  1.00271154  2346
CMS-01                  
1 47256U 20099A   25028.77033729 -.00000154  00000+0  00000+0 0  9998
2 47256   0.0898  93.0962 0007768 186.4717 209.0023  1.00269269 15144
TURKSAT 5A              
1 47306U 21001A   25028.57549608  .00000165  00000+0  00000+0 0  9995
2 47306   0.0253  86.5316 0000235 351.3911 288.2154  1.00271836 14906
TIANTONG-1 3            
1 47321U 21003A   25030.71364388 -.00000146  00000+0  00000+0 0  9993
2 47321   2.4412 317.1216 0005305 345.6278 165.8508  1.00272338 14926
TJS-6                   
1 47613U 21010A   25031.50430832  .00000048  00000+0  00000+0 0  9991
2 47613   0.1399  96.6903 0002106 175.9995 218.2690  1.00271978 14785
SBIRS GEO-5 (USA 315)   
1 48618U 21042A   25031.04430175  .00000128  00000+0  00000+0 0  9990
2 48618   5.7975 326.2656 0002335 337.6617 223.4198  1.00271765 13729
FENGYUN 4B              
1 48808U 21047A   25030.66348191 -.00000323  00000+0  00000+0 0  9997
2 48808   0.1087  81.0805 0012074 355.9556  36.5340  1.00270126 13532
SXM-8                   
1 48838U 21049A   25026.57966135 -.00000189  00000+0  00000+0 0  9991
2 48838   0.0147  48.5831 0003958   1.3886 199.6306  1.00277863 13513
TIANLIAN 1-05           
1 49011U 21063A   25030.18616372  .00000116  00000+0  00000+0 0  9997
2 49011   0.2961  77.5614 0004578 210.2416 285.6691  1.00272818 13038
